[{"OBJECT_NAME":"STARLINK-34072","OBJECT_ID":"2025-110F","EPOCH":"2026-03-09T07:44:22.392960","MEAN_MOTION":15.30190771,"ECCENTRICITY":0.00011238,"INCLINATION":53.1602,"RA_OF_ASC_NODE":28.6578,"ARG_OF_PERICENTER":54.2929,"MEAN_ANOMALY":305.8176,"EPHEMERIS_TYPE":0,"CLASSIFICATION_TYPE":"U","NORAD_CAT_ID":64101,"ELEMENT_SET_NO":999,"REV_AT_EPOCH":4582,"BSTAR":0.00098571666,"MEAN_MOTION_DOT":0.0002894,"MEAN_MOTION_DDOT":0},{"OBJECT_NAME":"GEOSCAN 4 (RS92S4)","OBJECT_ID":"2025-155S","EPOCH":"2026-03-09T21:50:07.724832","MEAN_MOTION":15.30369837,"ECCENTRICITY":0.00070968,"INCLINATION":97.4465,"RA_OF_ASC_NODE":37.7626,"ARG_OF_PERICENTER":154.7045,"MEAN_ANOMALY":205.4544,"EPHEMERIS_TYPE":0,"CLASSIFICATION_TYPE":"U","NORAD_CAT_ID":64892,"ELEMENT_SET_NO":999,"REV_AT_EPOCH":6562,"BSTAR":0.00068609503,"MEAN_MOTION_DOT":0.00020121,"MEAN_MOTION_DDOT":0}]
